{
  "type": "FeatureCollection",
  "features": [
    {
      "type": "Feature",
      "properties": {
        "OBJECT_NAME": "SKY MEXICO-1",
        "OBJECT_ID": "2015-026B",
        "EPOCH": "2025-11-30T01:29:02.911200",
        "MEAN_MOTION": 1.00271815,
        "ECCENTRICITY": 0.0002492,
        "INCLINATION": 0.0168,
        "RA_OF_ASC_NODE": 312.8713,
        "ARG_OF_PERICENTER": 307.5188,
        "MEAN_ANOMALY": 112.3191,
        "EPHEMERIS_TYPE": 0,
        "CLASSIFICATION_TYPE": "U",
        "NORAD_CAT_ID": 40664,
        "ELEMENT_SET_NO": 999,
        "REV_AT_EPOCH": 3845,
        "BSTAR": 0,
        "MEAN_MOTION_DOT": -2.13e-06,
        "MEAN_MOTION_DDOT": 0,
        "norad_id": 40664,
        "name": "SKY MEXICO-1",
        "group": "intelsat",
        "longitude_deg": NaN,
        "latitude_deg": NaN,
        "alt_km": NaN,
        "orbit_class": "HEO",
        "timestamp": "2025-11-30T09:33:02.505356+00:00"
      },
      "geometry": {
        "type": "Point",
        "coordinates": [
          NaN,
          NaN
        ]
      }
    },
    {
      "type": "Feature",
      "properties": {
        "OBJECT_NAME": "INTELSAT 34 (IS-34)",
        "OBJECT_ID": "2015-039A",
        "EPOCH": "2025-11-30T01:35:39.778368",
        "MEAN_MOTION": 1.0027358,
        "ECCENTRICITY": 7.03e-05,
        "INCLINATION": 0.0132,
        "RA_OF_ASC_NODE": 296.8149,
        "ARG_OF_PERICENTER": 215.5429,
        "MEAN_ANOMALY": 245.2622,
        "EPHEMERIS_TYPE": 0,
        "CLASSIFICATION_TYPE": "U",
        "NORAD_CAT_ID": 40874,
        "ELEMENT_SET_NO": 999,
        "REV_AT_EPOCH": 3762,
        "BSTAR": 0,
        "MEAN_MOTION_DOT": -2.64e-06,
        "MEAN_MOTION_DDOT": 0,
        "norad_id": 40874,
        "name": "INTELSAT 34 (IS-34)",
        "group": "intelsat",
        "longitude_deg": NaN,
        "latitude_deg": NaN,
        "alt_km": NaN,
        "orbit_class": "HEO",
        "timestamp": "2025-11-30T09:33:02.505455+00:00"
      },
      "geometry": {
        "type": "Point",
        "coordinates": [
          NaN,
          NaN
        ]
      }
    },
    {
      "type": "Feature",
      "properties": {
        "OBJECT_NAME": "INTELSAT 31 (IS-31)",
        "OBJECT_ID": "2016-035A",
        "EPOCH": "2025-11-29T23:41:35.705184",
        "MEAN_MOTION": 1.00272241,
        "ECCENTRICITY": 0.0001926,
        "INCLINATION": 0.018,
        "RA_OF_ASC_NODE": 266.4652,
        "ARG_OF_PERICENTER": 306.9842,
        "MEAN_ANOMALY": 116.0312,
        "EPHEMERIS_TYPE": 0,
        "CLASSIFICATION_TYPE": "U",
        "NORAD_CAT_ID": 41581,
        "ELEMENT_SET_NO": 999,
        "REV_AT_EPOCH": 3468,
        "BSTAR": 0,
        "MEAN_MOTION_DOT": -1.3e-06,
        "MEAN_MOTION_DDOT": 0,
        "norad_id": 41581,
        "name": "INTELSAT 31 (IS-31)",
        "group": "intelsat",
        "longitude_deg": NaN,
        "latitude_deg": NaN,
        "alt_km": NaN,
        "orbit_class": "HEO",
        "timestamp": "2025-11-30T09:33:02.506032+00:00"
      },
      "geometry": {
        "type": "Point",
        "coordinates": [
          NaN,
          NaN
        ]
      }
    },
    {
      "type": "Feature",
      "properties": {
        "OBJECT_NAME": "INTELSAT 36 (IS-36)",
        "OBJECT_ID": "2016-053A",
        "EPOCH": "2025-11-30T02:25:38.586720",
        "MEAN_MOTION": 1.00275851,
        "ECCENTRICITY": 0.0001505,
        "INCLINATION": 0.0109,
        "RA_OF_ASC_NODE": 341.0461,
        "ARG_OF_PERICENTER": 335.7667,
        "MEAN_ANOMALY": 217.3593,
        "EPHEMERIS_TYPE": 0,
        "CLASSIFICATION_TYPE": "U",
        "NORAD_CAT_ID": 41747,
        "ELEMENT_SET_NO": 999,
        "REV_AT_EPOCH": 3395,
        "BSTAR": 0,
        "MEAN_MOTION_DOT": -4e-08,
        "MEAN_MOTION_DDOT": 0,
        "norad_id": 41747,
        "name": "INTELSAT 36 (IS-36)",
        "group": "intelsat",
        "longitude_deg": NaN,
        "latitude_deg": NaN,
        "alt_km": NaN,
        "orbit_class": "HEO",
        "timestamp": "2025-11-30T09:33:02.506162+00:00"
      },
      "geometry": {
        "type": "Point",
        "coordinates": [
          NaN,
          NaN
        ]
      }
    },
    {
      "type": "Feature",
      "properties": {
        "OBJECT_NAME": "INTELSAT 32E (IS-32E)",
        "OBJECT_ID": "2017-007B",
        "EPOCH": "2025-11-30T01:39:09.441792",
        "MEAN_MOTION": 1.00271446,
        "ECCENTRICITY": 1.56e-05,
        "INCLINATION": 0.0201,
        "RA_OF_ASC_NODE": 51.49,
        "ARG_OF_PERICENTER": 42.5159,
        "MEAN_ANOMALY": 316.8282,
        "EPHEMERIS_TYPE": 0,
        "CLASSIFICATION_TYPE": "U",
        "NORAD_CAT_ID": 41945,
        "ELEMENT_SET_NO": 999,
        "REV_AT_EPOCH": 3222,
        "BSTAR": 0,
        "MEAN_MOTION_DOT": -2.47e-06,
        "MEAN_MOTION_DDOT": 0,
        "norad_id": 41945,
        "name": "INTELSAT 32E (IS-32E)",
        "group": "intelsat",
        "longitude_deg": NaN,
        "latitude_deg": NaN,
        "alt_km": NaN,
        "orbit_class": "HEO",
        "timestamp": "2025-11-30T09:33:02.506622+00:00"
      },
      "geometry": {
        "type": "Point",
        "coordinates": [
          NaN,
          NaN
        ]
      }
    },
    {
      "type": "Feature",
      "properties": {
        "OBJECT_NAME": "INTELSAT 35E (IS-35E)",
        "OBJECT_ID": "2017-041A",
        "EPOCH": "2025-11-30T01:41:39.204096",
        "MEAN_MOTION": 1.00270285,
        "ECCENTRICITY": 0.0002371,
        "INCLINATION": 0.019,
        "RA_OF_ASC_NODE": 328.7738,
        "ARG_OF_PERICENTER": 281.3366,
        "MEAN_ANOMALY": 170.0079,
        "EPHEMERIS_TYPE": 0,
        "CLASSIFICATION_TYPE": "U",
        "NORAD_CAT_ID": 42818,
        "ELEMENT_SET_NO": 999,
        "REV_AT_EPOCH": 3081,
        "BSTAR": 0,
        "MEAN_MOTION_DOT": 0,
        "MEAN_MOTION_DDOT": 0,
        "norad_id": 42818,
        "name": "INTELSAT 35E (IS-35E)",
        "group": "intelsat",
        "longitude_deg": NaN,
        "latitude_deg": NaN,
        "alt_km": NaN,
        "orbit_class": "HEO",
        "timestamp": "2025-11-30T09:33:02.506846+00:00"
      },
      "geometry": {
        "type": "Point",
        "coordinates": [
          NaN,
          NaN
        ]
      }
    },
    {
      "type": "Feature",
      "properties": {
        "OBJECT_NAME": "INTELSAT 37E (IS-37E)",
        "OBJECT_ID": "2017-059A",
        "EPOCH": "2025-11-30T01:46:23.750400",
        "MEAN_MOTION": 1.00270548,
        "ECCENTRICITY": 0.0003368,
        "INCLINATION": 0.022,
        "RA_OF_ASC_NODE": 317.0773,
        "ARG_OF_PERICENTER": 289.8456,
        "MEAN_ANOMALY": 190.8733,
        "EPHEMERIS_TYPE": 0,
        "CLASSIFICATION_TYPE": "U",
        "NORAD_CAT_ID": 42950,
        "ELEMENT_SET_NO": 999,
        "REV_AT_EPOCH": 3006,
        "BSTAR": 0,
        "MEAN_MOTION_DOT": 0,
        "MEAN_MOTION_DDOT": 0,
        "norad_id": 42950,
        "name": "INTELSAT 37E (IS-37E)",
        "group": "intelsat",
        "longitude_deg": NaN,
        "latitude_deg": NaN,
        "alt_km": NaN,
        "orbit_class": "HEO",
        "timestamp": "2025-11-30T09:33:02.507027+00:00"
      },
      "geometry": {
        "type": "Point",
        "coordinates": [
          NaN,
          NaN
        ]
      }
    },
    {
      "type": "Feature",
      "properties": {
        "OBJECT_NAME": "AZERSPACE 2 (IS-38)",
        "OBJECT_ID": "2018-074A",
        "EPOCH": "2025-11-30T02:04:22.029312",
        "MEAN_MOTION": 1.00270372,
        "ECCENTRICITY": 0.0001469,
        "INCLINATION": 0.0162,
        "RA_OF_ASC_NODE": 305.4412,
        "ARG_OF_PERICENTER": 295.501,
        "MEAN_ANOMALY": 264.4938,
        "EPHEMERIS_TYPE": 0,
        "CLASSIFICATION_TYPE": "U",
        "NORAD_CAT_ID": 43632,
        "ELEMENT_SET_NO": 999,
        "REV_AT_EPOCH": 2645,
        "BSTAR": 0,
        "MEAN_MOTION_DOT": 1.58e-06,
        "MEAN_MOTION_DDOT": 0,
        "norad_id": 43632,
        "name": "AZERSPACE 2 (IS-38)",
        "group": "intelsat",
        "longitude_deg": NaN,
        "latitude_deg": NaN,
        "alt_km": NaN,
        "orbit_class": "HEO",
        "timestamp": "2025-11-30T09:33:02.508186+00:00"
      },
      "geometry": {
        "type": "Point",
        "coordinates": [
          NaN,
          NaN
        ]
      }
    }
  ]
}