SKY MEXICO-1            
1 40664U 15026B   25334.06183925 -.00000213  00000+0  00000+0 0  9990
2 40664   0.0168 312.8713 0002492 307.5188 112.3191  1.00271815 38454
INTELSAT 34 (IS-34)     
1 40874U 15039A   25334.06643262 -.00000264  00000+0  00000+0 0  9998
2 40874   0.0132 296.8149 0000703 215.5429 245.2622  1.00273580 37625
INTELSAT 31 (IS-31)     
1 41581U 16035A   25333.98721881 -.00000130  00000+0  00000+0 0  9997
2 41581   0.0180 266.4652 0001926 306.9842 116.0312  1.00272241 34685
INTELSAT 36 (IS-36)     
1 41747U 16053A   25334.10114105 -.00000004  00000+0  00000+0 0  9991
2 41747   0.0109 341.0461 0001505 335.7667 217.3593  1.00275851 33951
INTELSAT 32E (IS-32E)   
1 41945U 17007B   25334.06885928 -.00000247  00000+0  00000+0 0  9993
2 41945   0.0201  51.4900 0000156  42.5159 316.8282  1.00271446 32229
INTELSAT 35E (IS-35E)   
1 42818U 17041A   25334.07059264  .00000000  00000+0  00000+0 0  9994
2 42818   0.0190 328.7738 0002371 281.3366 170.0079  1.00270285 30816
INTELSAT 37E (IS-37E)   
1 42950U 17059A   25334.07388600  .00000000  00000+0  00000+0 0  9999
2 42950   0.0220 317.0773 0003368 289.8456 190.8733  1.00270548 30063
AZERSPACE 2 (IS-38)     
1 43632U 18074A   25334.08636608  .00000158  00000+0  00000+0 0  9994
2 43632   0.0162 305.4412 0001469 295.5010 264.4938  1.00270372 26455
